CCSDS_OMM_VERS = 2.0
CREATION_DATE  = 
ORIGINATOR     = 

OBJECT_NAME    = TIANHUI 7
OBJECT_ID      = 2025-314A
CENTER_NAME    = EARTH
REF_FRAME      = TEME
TIME_SYSTEM    = UTC
MEAN_ELEMENT_THEORY = SGP/SGP4

EPOCH          = 2026-01-20T22:20:42.562752
MEAN_MOTION    = 15.25587940
ECCENTRICITY   = .00015619
INCLINATION    = 97.4187
RA_OF_ASC_NODE = 97.9671
ARG_OF_PERICENTER = 100.1824
MEAN_ANOMALY   = 259.9591

EPHEMERIS_TYPE = 0
CLASSIFICATION_TYPE = U
NORAD_CAT_ID   = 67300
ELEMENT_SET_NO = 999
REV_AT_EPOCH   = 333
BSTAR          = .19816833E-3
MEAN_MOTION_DOT = .496E-4
MEAN_MOTION_DDOT = 0

CCSDS_OMM_VERS = 2.0
CREATION_DATE  = 
ORIGINATOR     = 

OBJECT_NAME    = CZ-4B R/B
OBJECT_ID      = 2025-314B
CENTER_NAME    = EARTH
REF_FRAME      = TEME
TIME_SYSTEM    = UTC
MEAN_ELEMENT_THEORY = SGP/SGP4

EPOCH          = 2026-01-27T18:53:27.563712
MEAN_MOTION    = 15.72902549
ECCENTRICITY   = .013007
INCLINATION    = 97.3703
RA_OF_ASC_NODE = 106.5093
ARG_OF_PERICENTER = 270.5025
MEAN_ANOMALY   = 88.1336

EPHEMERIS_TYPE = 0
CLASSIFICATION_TYPE = U
NORAD_CAT_ID   = 67301
ELEMENT_SET_NO = 999
REV_AT_EPOCH   = 445
BSTAR          = .64612E-3
MEAN_MOTION_DOT = .148034E-2
MEAN_MOTION_DDOT = .87541E-5

CCSDS_OMM_VERS = 2.0
CREATION_DATE  = 
ORIGINATOR     = 

OBJECT_NAME    = SHIJIAN-29A (SJ-29A)
OBJECT_ID      = 2025-315A
CENTER_NAME    = EARTH
REF_FRAME      = TEME
TIME_SYSTEM    = UTC
MEAN_ELEMENT_THEORY = SGP/SGP4

EPOCH          = 2026-01-27T20:35:19.476384
MEAN_MOTION    = 1.00270852
ECCENTRICITY   = .0001385
INCLINATION    = 3.0415
RA_OF_ASC_NODE = 98.8200
ARG_OF_PERICENTER = 292.9553
MEAN_ANOMALY   = 117.1906

EPHEMERIS_TYPE = 0
CLASSIFICATION_TYPE = U
NORAD_CAT_ID   = 67302
ELEMENT_SET_NO = 999
REV_AT_EPOCH   = 21
BSTAR          = 0
MEAN_MOTION_DOT = -.61E-6
MEAN_MOTION_DDOT = 0

CCSDS_OMM_VERS = 2.0
CREATION_DATE  = 
ORIGINATOR     = 

OBJECT_NAME    = CZ-7A R/B
OBJECT_ID      = 2025-315B
CENTER_NAME    = EARTH
REF_FRAME      = TEME
TIME_SYSTEM    = UTC
MEAN_ELEMENT_THEORY = SGP/SGP4

EPOCH          = 2026-01-27T06:09:15.039648
MEAN_MOTION    = 2.45785891
ECCENTRICITY   = .71750343
INCLINATION    = 19.6072
RA_OF_ASC_NODE = 88.9584
ARG_OF_PERICENTER = 200.1807
MEAN_ANOMALY   = 102.4165

EPHEMERIS_TYPE = 0
CLASSIFICATION_TYPE = U
NORAD_CAT_ID   = 67303
ELEMENT_SET_NO = 999
REV_AT_EPOCH   = 67
BSTAR          = .24455212E-2
MEAN_MOTION_DOT = .7423E-3
MEAN_MOTION_DDOT = .526199E-6

CCSDS_OMM_VERS = 2.0
CREATION_DATE  = 
ORIGINATOR     = 

OBJECT_NAME    = CSG-3
OBJECT_ID      = 2026-001A
CENTER_NAME    = EARTH
REF_FRAME      = TEME
TIME_SYSTEM    = UTC
MEAN_ELEMENT_THEORY = SGP/SGP4

EPOCH          = 2026-01-27T20:17:29.804640
MEAN_MOTION    = 14.82512683
ECCENTRICITY   = .0001609
INCLINATION    = 97.8454
RA_OF_ASC_NODE = 213.4930
ARG_OF_PERICENTER = 82.7071
MEAN_ANOMALY   = 277.4326

EPHEMERIS_TYPE = 0
CLASSIFICATION_TYPE = U
NORAD_CAT_ID   = 67304
ELEMENT_SET_NO = 999
REV_AT_EPOCH   = 367
BSTAR          = .10118E-3
MEAN_MOTION_DOT = .761E-5
MEAN_MOTION_DDOT = 0

CCSDS_OMM_VERS = 2.0
CREATION_DATE  = 
ORIGINATOR     = 

OBJECT_NAME    = STARLINK-36490
OBJECT_ID      = 2026-002A
CENTER_NAME    = EARTH
REF_FRAME      = TEME
TIME_SYSTEM    = UTC
MEAN_ELEMENT_THEORY = SGP/SGP4

EPOCH          = 2026-01-27T20:00:01.999008
MEAN_MOTION    = 15.56519894
ECCENTRICITY   = .0001611
INCLINATION    = 42.9990
RA_OF_ASC_NODE = 198.0566
ARG_OF_PERICENTER = 281.4167
MEAN_ANOMALY   = 194.4821

EPHEMERIS_TYPE = 0
CLASSIFICATION_TYPE = U
NORAD_CAT_ID   = 67305
ELEMENT_SET_NO = 999
REV_AT_EPOCH   = 491
BSTAR          = -.32376E-1
MEAN_MOTION_DOT = -.209882E-1
MEAN_MOTION_DDOT = 0

CCSDS_OMM_VERS = 2.0
CREATION_DATE  = 
ORIGINATOR     = 

OBJECT_NAME    = STARLINK-36488
OBJECT_ID      = 2026-002B
CENTER_NAME    = EARTH
REF_FRAME      = TEME
TIME_SYSTEM    = UTC
MEAN_ELEMENT_THEORY = SGP/SGP4

EPOCH          = 2026-01-27T20:00:01.999008
MEAN_MOTION    = 15.56531928
ECCENTRICITY   = .0001298
INCLINATION    = 42.9991
RA_OF_ASC_NODE = 198.0524
ARG_OF_PERICENTER = 280.5230
MEAN_ANOMALY   = 197.2921

EPHEMERIS_TYPE = 0
CLASSIFICATION_TYPE = U
NORAD_CAT_ID   = 67306
ELEMENT_SET_NO = 999
REV_AT_EPOCH   = 485
BSTAR          = -.32654E-1
MEAN_MOTION_DOT = -.2115445E-1
MEAN_MOTION_DDOT = 0

CCSDS_OMM_VERS = 2.0
CREATION_DATE  = 
ORIGINATOR     = 

OBJECT_NAME    = STARLINK-36481
OBJECT_ID      = 2026-002C
CENTER_NAME    = EARTH
REF_FRAME      = TEME
TIME_SYSTEM    = UTC
MEAN_ELEMENT_THEORY = SGP/SGP4

EPOCH          = 2026-01-27T20:00:01.999008
MEAN_MOTION    = 15.56516272
ECCENTRICITY   = .0001524
INCLINATION    = 42.9992
RA_OF_ASC_NODE = 198.0427
ARG_OF_PERICENTER = 289.4301
MEAN_ANOMALY   = 192.2247

EPHEMERIS_TYPE = 0
CLASSIFICATION_TYPE = U
NORAD_CAT_ID   = 67307
ELEMENT_SET_NO = 999
REV_AT_EPOCH   = 485
BSTAR          = -.32337E-1
MEAN_MOTION_DOT = -.2096254E-1
MEAN_MOTION_DDOT = 0

CCSDS_OMM_VERS = 2.0
CREATION_DATE  = 
ORIGINATOR     = 

OBJECT_NAME    = STARLINK-36449
OBJECT_ID      = 2026-002D
CENTER_NAME    = EARTH
REF_FRAME      = TEME
TIME_SYSTEM    = UTC
MEAN_ELEMENT_THEORY = SGP/SGP4

EPOCH          = 2026-01-27T20:00:01.999008
MEAN_MOTION    = 15.56520701
ECCENTRICITY   = .0001522
INCLINATION    = 42.9991
RA_OF_ASC_NODE = 198.0374
ARG_OF_PERICENTER = 281.8805
MEAN_ANOMALY   = 201.6869

EPHEMERIS_TYPE = 0
CLASSIFICATION_TYPE = U
NORAD_CAT_ID   = 67308
ELEMENT_SET_NO = 999
REV_AT_EPOCH   = 491
BSTAR          = -.32387E-1
MEAN_MOTION_DOT = -.2099395E-1
MEAN_MOTION_DDOT = 0

CCSDS_OMM_VERS = 2.0
CREATION_DATE  = 
ORIGINATOR     = 

OBJECT_NAME    = STARLINK-36482
OBJECT_ID      = 2026-002E
CENTER_NAME    = EARTH
REF_FRAME      = TEME
TIME_SYSTEM    = UTC
MEAN_ELEMENT_THEORY = SGP/SGP4

EPOCH          = 2026-01-27T20:00:01.999008
MEAN_MOTION    = 15.56519706
ECCENTRICITY   = .0001413
INCLINATION    = 42.9991
RA_OF_ASC_NODE = 198.0147
ARG_OF_PERICENTER = 286.6727
MEAN_ANOMALY   = 206.4795

EPHEMERIS_TYPE = 0
CLASSIFICATION_TYPE = U
NORAD_CAT_ID   = 67309
ELEMENT_SET_NO = 999
REV_AT_EPOCH   = 485
BSTAR          = -.32358E-1
MEAN_MOTION_DOT = -.209762E-1
MEAN_MOTION_DDOT = 0

CCSDS_OMM_VERS = 2.0
CREATION_DATE  = 
ORIGINATOR     = 

OBJECT_NAME    = STARLINK-36491
OBJECT_ID      = 2026-002F
CENTER_NAME    = EARTH
REF_FRAME      = TEME
TIME_SYSTEM    = UTC
MEAN_ELEMENT_THEORY = SGP/SGP4

EPOCH          = 2026-01-27T20:00:01.999008
MEAN_MOTION    = 15.56524526
ECCENTRICITY   = .0001566
INCLINATION    = 42.9991
RA_OF_ASC_NODE = 198.0484
ARG_OF_PERICENTER = 283.8996
MEAN_ANOMALY   = 195.8350

EPHEMERIS_TYPE = 0
CLASSIFICATION_TYPE = U
NORAD_CAT_ID   = 67310
ELEMENT_SET_NO = 999
REV_AT_EPOCH   = 485
BSTAR          = -.32509E-1
MEAN_MOTION_DOT = -.2106771E-1
MEAN_MOTION_DDOT = 0

CCSDS_OMM_VERS = 2.0
CREATION_DATE  = 
ORIGINATOR     = 

OBJECT_NAME    = STARLINK-36495
OBJECT_ID      = 2026-002G
CENTER_NAME    = EARTH
REF_FRAME      = TEME
TIME_SYSTEM    = UTC
MEAN_ELEMENT_THEORY = SGP/SGP4

EPOCH          = 2026-01-27T20:00:01.999008
MEAN_MOTION    = 15.56522371
ECCENTRICITY   = .000137
INCLINATION    = 42.9992
RA_OF_ASC_NODE = 198.0329
ARG_OF_PERICENTER = 283.8662
MEAN_ANOMALY   = 201.6180

EPHEMERIS_TYPE = 0
CLASSIFICATION_TYPE = U
NORAD_CAT_ID   = 67311
ELEMENT_SET_NO = 999
REV_AT_EPOCH   = 500
BSTAR          = -.32428E-1
MEAN_MOTION_DOT = -.2101815E-1
MEAN_MOTION_DDOT = 0

