TIANHUI 7               
1 67300U 25314A   26020.93104818  .00004960  00000+0  19817-3 0  9992
2 67300  97.4187  97.9671 0001561 100.1824 259.9591 15.25587940  3337
CZ-4B R/B               
1 67301U 25314B   26027.78712458  .00148034  87541-5  64612-3 0  9993
2 67301  97.3703 106.5093 0130070 270.5025  88.1336 15.72902549  4450
SHIJIAN-29A (SJ-29A)    
1 67302U 25315A   26027.85786431 -.00000061  00000+0  00000+0 0  9999
2 67302   3.0415  98.8200 0001385 292.9553 117.1906  1.00270852   215
CZ-7A R/B               
1 67303U 25315B   26027.25642407  .00074230  52620-6  24455-2 0  9991
2 67303  19.6072  88.9584 7175034 200.1807 102.4165  2.45785891   674
CSG-3                   
1 67304U 26001A   26027.84548385  .00000761  00000+0  10118-3 0  9998
2 67304  97.8454 213.4930 0001609  82.7071 277.4326 14.82512683  3679
STARLINK-36490          
1 67305U 26002A   26027.83335647 -.02098820  00000+0 -32376-1 0  9999
2 67305  42.9990 198.0566 0001611 281.4167 194.4821 15.56519894  4915
STARLINK-36488          
1 67306U 26002B   26027.83335647 -.02115445  00000+0 -32654-1 0  9992
2 67306  42.9991 198.0524 0001298 280.5230 197.2921 15.56531928  4850
STARLINK-36481          
1 67307U 26002C   26027.83335647 -.02096254  00000+0 -32337-1 0  9997
2 67307  42.9992 198.0427 0001524 289.4301 192.2247 15.56516272  4854
STARLINK-36449          
1 67308U 26002D   26027.83335647 -.02099395  00000+0 -32387-1 0  9992
2 67308  42.9991 198.0374 0001522 281.8805 201.6869 15.56520701  4912
STARLINK-36482          
1 67309U 26002E   26027.83335647 -.02097620  00000+0 -32358-1 0  9990
2 67309  42.9991 198.0147 0001413 286.6727 206.4795 15.56519706  4853
STARLINK-36491          
1 67310U 26002F   26027.83335647 -.02106771  00000+0 -32509-1 0  9998
2 67310  42.9991 198.0484 0001566 283.8996 195.8350 15.56524526  4859
STARLINK-36495          
1 67311U 26002G   26027.83335647 -.02101815  00000+0 -32428-1 0  9993
2 67311  42.9992 198.0329 0001370 283.8662 201.6180 15.56522371  5003
